IRIDIUM 144             
1 43249U 18030A   23352.42582580  .00000442  00000+0  15070-3 0  9998
2 43249  86.3957 311.4648 0002272  86.6867 273.4589 14.34218918299451
IRIDIUM 149             
1 43250U 18030B   23352.43216744 -.00000055  00000+0 -26847-4 0  9994
2 43250  86.3951 311.4395 0002150  81.0281 279.1158 14.34217610299475
IRIDIUM 157             
1 43251U 18030C   23352.45118596  .00000357  00000+0  12046-3 0  9991
2 43251  86.3959 311.4644 0002217  98.9903 261.1544 14.34217961299450
IRIDIUM 140             
1 43252U 18030D   23352.54000760  .00000342  00000+0  11506-3 0  9999
2 43252  86.3958 311.4424 0002592  79.6286 280.5201 14.34218293299524
IRIDIUM 145             
1 43253U 18030E   23352.38777285  .00000324  00000+0  10857-3 0  9993
2 43253  86.3961 311.4804 0002248  82.1501 277.9950 14.34218729299433
IRIDIUM 146             
1 43254U 18030F   23352.36873888  .00000062  00000+0  15025-4 0  9990
2 43254  86.3961 311.5032 0002231  76.1582 283.9862 14.34216371299443
IRIDIUM 148             
1 43255U 18030G   23352.40679835  .00000383  00000+0  12964-3 0  9996
2 43255  86.3959 311.5166 0001988  84.6896 275.4526 14.34220138299482
IRIDIUM 142             
1 43256U 18030H   23352.44485180  .00000793  00000+0  27614-3 0  9992
2 43256  86.3956 311.4226 0002106  79.3191 280.8241 14.34217767299453
